{
  "type": "FeatureCollection",
  "features": [
    {
      "type": "Feature",
      "properties": {
        "norad_id": 66618,
        "name": "STARLINK-35970",
        "group": "last-30-days",
        "lat": 53.109313918544615,
        "lon": -137.92974139531134,
        "alt_km": 421.7490837091291,
        "timestamp": "2025-12-23T16:57:11.059845+00:00",
        "meta_object_name": "STARLINK-35970",
        "meta_object_id": "2025-271B",
        "meta_epoch": "2025-12-23T06:00:00.999648",
        "meta_mean_motion": 15.45498914,
        "meta_eccentricity": 0.00011644,
        "meta_inclination": 53.16,
        "meta_ra_of_asc_node": 136.9645,
        "meta_arg_of_pericenter": 80.9673,
        "meta_mean_anomaly": 346.7634,
        "meta_ephemeris_type": 0,
        "meta_classification_type": "U",
        "meta_norad_cat_id": 66618,
        "meta_element_set_no": 999,
        "meta_rev_at_epoch": 593,
        "meta_bstar": 0.0018143463,
        "meta_mean_motion_dot": 0.00088997,
        "meta_mean_motion_ddot": 0,
        "tle_line1": "1 66618U 25271B   25357.25001157  .00088997  00000+0  18143-2 0  9996",
        "tle_line2": "2 66618  53.1600 136.9645 0001164  80.9673 346.7634 15.45498914  5933"
      },
      "geometry": {
        "type": "Point",
        "coordinates": [
          -137.92974139531134,
          53.109313918544615
        ]
      }
    },
    {
      "type": "Feature",
      "properties": {
        "norad_id": 66619,
        "name": "STARLINK-35951",
        "group": "last-30-days",
        "lat": 11.381223098955987,
        "lon": 143.62600545766074,
        "alt_km": 446.15087801196023,
        "timestamp": "2025-12-23T16:57:11.059856+00:00",
        "meta_object_name": "STARLINK-35951",
        "meta_object_id": "2025-271C",
        "meta_epoch": "2025-12-23T06:00:00.999648",
        "meta_mean_motion": 15.39566769,
        "meta_eccentricity": 0.00015324,
        "meta_inclination": 53.1605,
        "meta_ra_of_asc_node": 137.0972,
        "meta_arg_of_pericenter": 85.4042,
        "meta_mean_anomaly": 278.113,
        "meta_ephemeris_type": 0,
        "meta_classification_type": "U",
        "meta_norad_cat_id": 66619,
        "meta_element_set_no": 999,
        "meta_rev_at_epoch": 593,
        "meta_bstar": 0.0020952062,
        "meta_mean_motion_dot": 0.0008419,
        "meta_mean_motion_ddot": 0,
        "tle_line1": "1 66619U 25271C   25357.25001157  .00084190  00000+0  20952-2 0  9999",
        "tle_line2": "2 66619  53.1605 137.0972 0001532  85.4042 278.1130 15.39566769  5939"
      },
      "geometry": {
        "type": "Point",
        "coordinates": [
          143.62600545766074,
          11.381223098955987
        ]
      }
    },
    {
      "type": "Feature",
      "properties": {
        "norad_id": 66620,
        "name": "STARLINK-35936",
        "group": "last-30-days",
        "lat": -28.939898408413345,
        "lon": 110.56036886898185,
        "alt_km": 451.15378307229366,
        "timestamp": "2025-12-23T16:57:11.059866+00:00",
        "meta_object_name": "STARLINK-35936",
        "meta_object_id": "2025-271D",
        "meta_epoch": "2025-12-23T06:00:00.999648",
        "meta_mean_motion": 15.39567083,
        "meta_eccentricity": 8.289e-05,
        "meta_inclination": 53.1607,
        "meta_ra_of_asc_node": 137.2014,
        "meta_arg_of_pericenter": 73.5879,
        "meta_mean_anomaly": 238.4214,
        "meta_ephemeris_type": 0,
        "meta_classification_type": "U",
        "meta_norad_cat_id": 66620,
        "meta_element_set_no": 999,
        "meta_rev_at_epoch": 593,
        "meta_bstar": 0.002000683,
        "meta_mean_motion_dot": 0.00080333,
        "meta_mean_motion_ddot": 0,
        "tle_line1": "1 66620U 25271D   25357.25001157  .00080333  00000+0  20007-2 0  9997",
        "tle_line2": "2 66620  53.1607 137.2014 0000828  73.5879 238.4214 15.39567083  5937"
      },
      "geometry": {
        "type": "Point",
        "coordinates": [
          110.56036886898185,
          -28.939898408413345
        ]
      }
    },
    {
      "type": "Feature",
      "properties": {
        "norad_id": 66621,
        "name": "STARLINK-35847",
        "group": "last-30-days",
        "lat": 53.09793456487308,
        "lon": -132.0337345716405,
        "alt_km": 421.77060026592426,
        "timestamp": "2025-12-23T16:57:11.059878+00:00",
        "meta_object_name": "STARLINK-35847",
        "meta_object_id": "2025-271E",
        "meta_epoch": "2025-12-23T06:00:00.999648",
        "meta_mean_motion": 15.45500281,
        "meta_eccentricity": 0.00011354,
        "meta_inclination": 53.1599,
        "meta_ra_of_asc_node": 136.9571,
        "meta_arg_of_pericenter": 83.7333,
        "meta_mean_anomaly": 347.5335,
        "meta_ephemeris_type": 0,
        "meta_classification_type": "U",
        "meta_norad_cat_id": 66621,
        "meta_element_set_no": 999,
        "meta_rev_at_epoch": 593,
        "meta_bstar": 0.0017885884,
        "meta_mean_motion_dot": 0.00087717,
        "meta_mean_motion_ddot": 0,
        "tle_line1": "1 66621U 25271E   25357.25001157  .00087717  00000+0  17886-2 0  9992",
        "tle_line2": "2 66621  53.1599 136.9571 0001135  83.7333 347.5335 15.45500281  5932"
      },
      "geometry": {
        "type": "Point",
        "coordinates": [
          -132.0337345716405,
          53.09793456487308
        ]
      }
    },
    {
      "type": "Feature",
      "properties": {
        "norad_id": 66622,
        "name": "STARLINK-35950",
        "group": "last-30-days",
        "lat": -47.00243972807868,
        "lon": 8.715890785572538,
        "alt_km": 450.75133560172344,
        "timestamp": "2025-12-23T16:57:11.059888+00:00",
        "meta_object_name": "STARLINK-35950",
        "meta_object_id": "2025-271F",
        "meta_epoch": "2025-12-22T19:38:12.214752",
        "meta_mean_motion": 15.39675938,
        "meta_eccentricity": 0.00012221,
        "meta_inclination": 53.1612,
        "meta_ra_of_asc_node": 139.3883,
        "meta_arg_of_pericenter": 274.5298,
        "meta_mean_anomaly": 85.5568,
        "meta_ephemeris_type": 0,
        "meta_classification_type": "U",
        "meta_norad_cat_id": 66622,
        "meta_element_set_no": 999,
        "meta_rev_at_epoch": 576,
        "meta_bstar": 0.0012007732,
        "meta_mean_motion_dot": 0.00048022,
        "meta_mean_motion_ddot": 0,
        "tle_line1": "1 66622U 25271F   25356.81819693  .00048022  00000+0  12008-2 0  9993",
        "tle_line2": "2 66622  53.1612 139.3883 0001222 274.5298  85.5568 15.39675938  5762"
      },
      "geometry": {
        "type": "Point",
        "coordinates": [
          8.715890785572538,
          -47.00243972807868
        ]
      }
    },
    {
      "type": "Feature",
      "properties": {
        "norad_id": 66623,
        "name": "STARLINK-35920",
        "group": "last-30-days",
        "lat": -11.453776671723137,
        "lon": -35.96017858094495,
        "alt_km": 449.4251966778911,
        "timestamp": "2025-12-23T16:57:11.059898+00:00",
        "meta_object_name": "STARLINK-35920",
        "meta_object_id": "2025-271G",
        "meta_epoch": "2025-12-22T19:51:35.812512",
        "meta_mean_motion": 15.39628468,
        "meta_eccentricity": 5.462e-05,
        "meta_inclination": 53.1605,
        "meta_ra_of_asc_node": 139.4454,
        "meta_arg_of_pericenter": 86.5592,
        "meta_mean_anomaly": 273.5475,
        "meta_ephemeris_type": 0,
        "meta_classification_type": "U",
        "meta_norad_cat_id": 66623,
        "meta_element_set_no": 999,
        "meta_rev_at_epoch": 576,
        "meta_bstar": 0.00066585143,
        "meta_mean_motion_dot": 0.00026333,
        "meta_mean_motion_ddot": 0,
        "tle_line1": "1 66623U 25271G   25356.82749783  .00026333  00000+0  66585-3 0  9998",
        "tle_line2": "2 66623  53.1605 139.4454 0000546  86.5592 273.5475 15.39628468  5768"
      },
      "geometry": {
        "type": "Point",
        "coordinates": [
          -35.96017858094495,
          -11.453776671723137
        ]
      }
    },
    {
      "type": "Feature",
      "properties": {
        "norad_id": 66624,
        "name": "STARLINK-35927",
        "group": "last-30-days",
        "lat": 30.272215684601505,
        "lon": 160.84905298594447,
        "alt_km": 438.0648366366895,
        "timestamp": "2025-12-23T16:57:11.059908+00:00",
        "meta_object_name": "STARLINK-35927",
        "meta_object_id": "2025-271H",
        "meta_epoch": "2025-12-23T06:00:00.999648",
        "meta_mean_motion": 15.4324038,
        "meta_eccentricity": 0.0001305,
        "meta_inclination": 53.1604,
        "meta_ra_of_asc_node": 137.0574,
        "meta_arg_of_pericenter": 102.5832,
        "meta_mean_anomaly": 281.3024,
        "meta_ephemeris_type": 0,
        "meta_classification_type": "U",
        "meta_norad_cat_id": 66624,
        "meta_element_set_no": 999,
        "meta_rev_at_epoch": 593,
        "meta_bstar": -0.048177272,
        "meta_mean_motion_dot": -0.0194476,
        "meta_mean_motion_ddot": 0,
        "tle_line1": "1 66624U 25271H   25357.25001157 -.01944760  00000+0 -48177-1 0  9994",
        "tle_line2": "2 66624  53.1604 137.0574 0001305 102.5832 281.3024 15.43240380  5939"
      },
      "geometry": {
        "type": "Point",
        "coordinates": [
          160.84905298594447,
          30.272215684601505
        ]
      }
    }
  ]
}